<?xml version="1.0" encoding="UTF-8"?>
<ndm xmlns:xsi="https://www.w3.org/2001/XMLSchema-instance" xsi:noNamespaceSchemaLocation="https://sanaregistry.org/r/ndmxml/ndmxml-1.0-master.xsd">
<omm id="CCSDS_OMM_VERS" version="2.0">
<header><CREATION_DATE/><ORIGINATOR/></header><body><segment><metadata><OBJECT_NAME>STARS-ME</OBJECT_NAME><OBJECT_ID>1998-067PQ</OBJECT_ID><CENTER_NAME>EARTH</CENTER_NAME><REF_FRAME>TEME</REF_FRAME><TIME_SYSTEM>UTC</TIME_SYSTEM><MEAN_ELEMENT_THEORY>SGP4</MEAN_ELEMENT_THEORY></metadata><data><meanElements><EPOCH>2020-06-25T11:11:57.053184</EPOCH><MEAN_MOTION>15.65958504</MEAN_MOTION><ECCENTRICITY>.0004138</ECCENTRICITY><INCLINATION>51.6345</INCLINATION><RA_OF_ASC_NODE>267.5771</RA_OF_ASC_NODE><ARG_OF_PERICENTER>59.2991</ARG_OF_PERICENTER><MEAN_ANOMALY>300.8412</MEAN_ANOMALY></meanElements><tleParameters><EPHEMERIS_TYPE>0</EPHEMERIS_TYPE><CLASSIFICATION_TYPE>U</CLASSIFICATION_TYPE><NORAD_CAT_ID>43640</NORAD_CAT_ID><ELEMENT_SET_NO>999</ELEMENT_SET_NO><REV_AT_EPOCH>9798</REV_AT_EPOCH><BSTAR>.83820E-4</BSTAR><MEAN_MOTION_DOT>8.174E-5</MEAN_MOTION_DOT><MEAN_MOTION_DDOT>0</MEAN_MOTION_DDOT></tleParameters></data></segment></body></omm>
<omm id="CCSDS_OMM_VERS" version="2.0">
<header><CREATION_DATE/><ORIGINATOR/></header><body><segment><metadata><OBJECT_NAME>ISS DEB (SEDA-AP)</OBJECT_NAME><OBJECT_ID>1998-067PU</OBJECT_ID><CENTER_NAME>EARTH</CENTER_NAME><REF_FRAME>TEME</REF_FRAME><TIME_SYSTEM>UTC</TIME_SYSTEM><MEAN_ELEMENT_THEORY>SGP4</MEAN_ELEMENT_THEORY></metadata><data><meanElements><EPOCH>2020-06-25T12:08:33.946944</EPOCH><MEAN_MOTION>15.57900293</MEAN_MOTION><ECCENTRICITY>.0004534</ECCENTRICITY><INCLINATION>51.6386</INCLINATION><RA_OF_ASC_NODE>285.9430</RA_OF_ASC_NODE><ARG_OF_PERICENTER>79.5406</ARG_OF_PERICENTER><MEAN_ANOMALY>280.6097</MEAN_ANOMALY></meanElements><tleParameters><EPHEMERIS_TYPE>0</EPHEMERIS_TYPE><CLASSIFICATION_TYPE>U</CLASSIFICATION_TYPE><NORAD_CAT_ID>43870</NORAD_CAT_ID><ELEMENT_SET_NO>999</ELEMENT_SET_NO><REV_AT_EPOCH>8591</REV_AT_EPOCH><BSTAR>.35078E-4</BSTAR><MEAN_MOTION_DOT>2.166E-5</MEAN_MOTION_DOT><MEAN_MOTION_DDOT>0</MEAN_MOTION_DDOT></tleParameters></data></segment></body></omm>
<omm id="CCSDS_OMM_VERS" version="2.0">
<header><CREATION_DATE/><ORIGINATOR/></header><body><segment><metadata><OBJECT_NAME>CATSAT-2</OBJECT_NAME><OBJECT_ID>1998-067PV</OBJECT_ID><CENTER_NAME>EARTH</CENTER_NAME><REF_FRAME>TEME</REF_FRAME><TIME_SYSTEM>UTC</TIME_SYSTEM><MEAN_ELEMENT_THEORY>SGP4</MEAN_ELEMENT_THEORY></metadata><data><meanElements><EPOCH>2020-06-25T13:10:55.402176</EPOCH><MEAN_MOTION>15.65513481</MEAN_MOTION><ECCENTRICITY>.0003457</ECCENTRICITY><INCLINATION>51.6382</INCLINATION><RA_OF_ASC_NODE>275.0032</RA_OF_ASC_NODE><ARG_OF_PERICENTER>113.1621</ARG_OF_PERICENTER><MEAN_ANOMALY>246.9739</MEAN_ANOMALY></meanElements><tleParameters><EPHEMERIS_TYPE>0</EPHEMERIS_TYPE><CLASSIFICATION_TYPE>U</CLASSIFICATION_TYPE><NORAD_CAT_ID>44029</NORAD_CAT_ID><ELEMENT_SET_NO>999</ELEMENT_SET_NO><REV_AT_EPOCH>7979</REV_AT_EPOCH><BSTAR>.12670E-3</BSTAR><MEAN_MOTION_DOT>1.242E-4</MEAN_MOTION_DOT><MEAN_MOTION_DDOT>0</MEAN_MOTION_DDOT></tleParameters></data></segment></body></omm>
<omm id="CCSDS_OMM_VERS" version="2.0">
<header><CREATION_DATE/><ORIGINATOR/></header><body><segment><metadata><OBJECT_NAME>DELPHINI</OBJECT_NAME><OBJECT_ID>1998-067PW</OBJECT_ID><CENTER_NAME>EARTH</CENTER_NAME><REF_FRAME>TEME</REF_FRAME><TIME_SYSTEM>UTC</TIME_SYSTEM><MEAN_ELEMENT_THEORY>SGP4</MEAN_ELEMENT_THEORY></metadata><data><meanElements><EPOCH>2020-06-25T11:56:39.790464</EPOCH><MEAN_MOTION>15.66502852</MEAN_MOTION><ECCENTRICITY>.0003070</ECCENTRICITY><INCLINATION>51.6340</INCLINATION><RA_OF_ASC_NODE>273.7903</RA_OF_ASC_NODE><ARG_OF_PERICENTER>107.0286</ARG_OF_PERICENTER><MEAN_ANOMALY>253.1046</MEAN_ANOMALY></meanElements><tleParameters><EPHEMERIS_TYPE>0</EPHEMERIS_TYPE><CLASSIFICATION_TYPE>U</CLASSIFICATION_TYPE><NORAD_CAT_ID>44030</NORAD_CAT_ID><ELEMENT_SET_NO>999</ELEMENT_SET_NO><REV_AT_EPOCH>7977</REV_AT_EPOCH><BSTAR>.12429E-3</BSTAR><MEAN_MOTION_DOT>1.2682E-4</MEAN_MOTION_DOT><MEAN_MOTION_DDOT>0</MEAN_MOTION_DDOT></tleParameters></data></segment></body></omm>
<omm id="CCSDS_OMM_VERS" version="2.0">
<header><CREATION_DATE/><ORIGINATOR/></header><body><segment><metadata><OBJECT_NAME>UNITE</OBJECT_NAME><OBJECT_ID>1998-067PX</OBJECT_ID><CENTER_NAME>EARTH</CENTER_NAME><REF_FRAME>TEME</REF_FRAME><TIME_SYSTEM>UTC</TIME_SYSTEM><MEAN_ELEMENT_THEORY>SGP4</MEAN_ELEMENT_THEORY></metadata><data><meanElements><EPOCH>2020-06-25T13:33:13.399488</EPOCH><MEAN_MOTION>15.61451416</MEAN_MOTION><ECCENTRICITY>.0003031</ECCENTRICITY><INCLINATION>51.6377</INCLINATION><RA_OF_ASC_NODE>281.0682</RA_OF_ASC_NODE><ARG_OF_PERICENTER>102.5710</ARG_OF_PERICENTER><MEAN_ANOMALY>257.5622</MEAN_ANOMALY></meanElements><tleParameters><EPHEMERIS_TYPE>0</EPHEMERIS_TYPE><CLASSIFICATION_TYPE>U</CLASSIFICATION_TYPE><NORAD_CAT_ID>44031</NORAD_CAT_ID><ELEMENT_SET_NO>999</ELEMENT_SET_NO><REV_AT_EPOCH>7968</REV_AT_EPOCH><BSTAR>.75773E-4</BSTAR><MEAN_MOTION_DOT>6.082E-5</MEAN_MOTION_DOT><MEAN_MOTION_DDOT>0</MEAN_MOTION_DDOT></tleParameters></data></segment></body></omm>
<omm id="CCSDS_OMM_VERS" version="2.0">
<header><CREATION_DATE/><ORIGINATOR/></header><body><segment><metadata><OBJECT_NAME>CATSAT-1</OBJECT_NAME><OBJECT_ID>1998-067PZ</OBJECT_ID><CENTER_NAME>EARTH</CENTER_NAME><REF_FRAME>TEME</REF_FRAME><TIME_SYSTEM>UTC</TIME_SYSTEM><MEAN_ELEMENT_THEORY>SGP4</MEAN_ELEMENT_THEORY></metadata><data><meanElements><EPOCH>2020-06-25T13:10:43.469472</EPOCH><MEAN_MOTION>15.65510807</MEAN_MOTION><ECCENTRICITY>.0003382</ECCENTRICITY><INCLINATION>51.6384</INCLINATION><RA_OF_ASC_NODE>275.0090</RA_OF_ASC_NODE><ARG_OF_PERICENTER>110.0677</ARG_OF_PERICENTER><MEAN_ANOMALY>250.0682</MEAN_ANOMALY></meanElements><tleParameters><EPHEMERIS_TYPE>0</EPHEMERIS_TYPE><CLASSIFICATION_TYPE>U</CLASSIFICATION_TYPE><NORAD_CAT_ID>44033</NORAD_CAT_ID><ELEMENT_SET_NO>999</ELEMENT_SET_NO><REV_AT_EPOCH>7970</REV_AT_EPOCH><BSTAR>.11580E-3</BSTAR><MEAN_MOTION_DOT>1.1301E-4</MEAN_MOTION_DOT><MEAN_MOTION_DDOT>0</MEAN_MOTION_DDOT></tleParameters></data></segment></body></omm>
<omm id="CCSDS_OMM_VERS" version="2.0">
<header><CREATION_DATE/><ORIGINATOR/></header><body><segment><metadata><OBJECT_NAME>ISS DEB</OBJECT_NAME><OBJECT_ID>1998-067QA</OBJECT_ID><CENTER_NAME>EARTH</CENTER_NAME><REF_FRAME>TEME</REF_FRAME><TIME_SYSTEM>UTC</TIME_SYSTEM><MEAN_ELEMENT_THEORY>SGP4</MEAN_ELEMENT_THEORY></metadata><data><meanElements><EPOCH>2020-06-25T12:09:27.049248</EPOCH><MEAN_MOTION>15.54377746</MEAN_MOTION><ECCENTRICITY>.0005352</ECCENTRICITY><INCLINATION>51.6420</INCLINATION><RA_OF_ASC_NODE>298.7712</RA_OF_ASC_NODE><ARG_OF_PERICENTER>3.5254</ARG_OF_PERICENTER><MEAN_ANOMALY>356.5773</MEAN_ANOMALY></meanElements><tleParameters><EPHEMERIS_TYPE>0</EPHEMERIS_TYPE><CLASSIFICATION_TYPE>U</CLASSIFICATION_TYPE><NORAD_CAT_ID>44303</NORAD_CAT_ID><ELEMENT_SET_NO>999</ELEMENT_SET_NO><REV_AT_EPOCH>6101</REV_AT_EPOCH><BSTAR>.41158E-4</BSTAR><MEAN_MOTION_DOT>2.268E-5</MEAN_MOTION_DOT><MEAN_MOTION_DDOT>0</MEAN_MOTION_DDOT></tleParameters></data></segment></body></omm>
<omm id="CCSDS_OMM_VERS" version="2.0">
<header><CREATION_DATE/><ORIGINATOR/></header><body><segment><metadata><OBJECT_NAME>ISS DEB</OBJECT_NAME><OBJECT_ID>1998-067QB</OBJECT_ID><CENTER_NAME>EARTH</CENTER_NAME><REF_FRAME>TEME</REF_FRAME><TIME_SYSTEM>UTC</TIME_SYSTEM><MEAN_ELEMENT_THEORY>SGP4</MEAN_ELEMENT_THEORY></metadata><data><meanElements><EPOCH>2020-06-25T13:12:17.525376</EPOCH><MEAN_MOTION>15.61805680</MEAN_MOTION><ECCENTRICITY>.0004573</ECCENTRICITY><INCLINATION>51.6393</INCLINATION><RA_OF_ASC_NODE>289.3085</RA_OF_ASC_NODE><ARG_OF_PERICENTER>342.1253</ARG_OF_PERICENTER><MEAN_ANOMALY>17.9580</MEAN_ANOMALY></meanElements><tleParameters><EPHEMERIS_TYPE>0</EPHEMERIS_TYPE><CLASSIFICATION_TYPE>U</CLASSIFICATION_TYPE><NORAD_CAT_ID>44304</NORAD_CAT_ID><ELEMENT_SET_NO>999</ELEMENT_SET_NO><REV_AT_EPOCH>6115</REV_AT_EPOCH><BSTAR>.13886E-3</BSTAR><MEAN_MOTION_DOT>1.1761E-4</MEAN_MOTION_DOT><MEAN_MOTION_DDOT>0</MEAN_MOTION_DDOT></tleParameters></data></segment></body></omm>

</ndm>
