STARS-ME                
1 43640U 98067PQ  20177.46663256  .00008174  00000-0  83820-4 0  9997
2 43640  51.6345 267.5771 0004138  59.2991 300.8412 15.65958504 97988
ISS DEB (SEDA-AP)       
1 43870U 98067PU  20177.50594846  .00002166  00000-0  35078-4 0  9992
2 43870  51.6386 285.9430 0004534  79.5406 280.6097 15.57900293 85917
CATSAT-2                
1 44029U 98067PV  20177.54925234  .00012420  00000-0  12670-3 0  9998
2 44029  51.6382 275.0032 0003457 113.1621 246.9739 15.65513481 79790
DELPHINI                
1 44030U 98067PW  20177.49768276  .00012682  00000-0  12429-3 0  9997
2 44030  51.6340 273.7903 0003070 107.0286 253.1046 15.66502852 79778
UNITE                   
1 44031U 98067PX  20177.56473842  .00006082  00000-0  75773-4 0  9997
2 44031  51.6377 281.0682 0003031 102.5710 257.5622 15.61451416 79686
CATSAT-1                
1 44033U 98067PZ  20177.54911423  .00011301  00000-0  11580-3 0  9994
2 44033  51.6384 275.0090 0003382 110.0677 250.0682 15.65510807 79708
ISS DEB                 
1 44303U 98067QA  20177.50656307  .00002268  00000-0  41158-4 0  9994
2 44303  51.6420 298.7712 0005352   3.5254 356.5773 15.54377746 61017
ISS DEB                 
1 44304U 98067QB  20177.55020284  .00011761  00000-0  13886-3 0  9993
2 44304  51.6393 289.3085 0004573 342.1253  17.9580 15.61805680 61151
